[{"OBJECT_NAME":"STARLINK-34679","OBJECT_ID":"2025-194J","EPOCH":"2026-03-09T21:50:23.040096","MEAN_MOTION":15.0564755,"ECCENTRICITY":0.0002279,"INCLINATION":97.6021,"RA_OF_ASC_NODE":284.6549,"ARG_OF_PERICENTER":80.433,"MEAN_ANOMALY":279.7154,"EPHEMERIS_TYPE":0,"CLASSIFICATION_TYPE":"U","NORAD_CAT_ID":65442,"ELEMENT_SET_NO":999,"REV_AT_EPOCH":2968,"BSTAR":-0.00048236356,"MEAN_MOTION_DOT":-7.014e-5,"MEAN_MOTION_DDOT":0},{"OBJECT_NAME":"SL-6 R\/B(2)","OBJECT_ID":"1990-055D","EPOCH":"2026-03-09T21:41:59.551872","MEAN_MOTION":15.03595553,"ECCENTRICITY":0.00247741,"INCLINATION":62.7825,"RA_OF_ASC_NODE":253.121,"ARG_OF_PERICENTER":347.1508,"MEAN_ANOMALY":12.8957,"EPHEMERIS_TYPE":0,"CLASSIFICATION_TYPE":"U","NORAD_CAT_ID":20666,"ELEMENT_SET_NO":999,"REV_AT_EPOCH":93822,"BSTAR":0.00020900577,"MEAN_MOTION_DOT":2.688e-5,"MEAN_MOTION_DDOT":0}]
